[{"OBJECT_NAME":"STARLINK-33738","OBJECT_ID":"2025-094AB","EPOCH":"2026-03-09T21:25:41.733696","MEAN_MOTION":14.98334264,"ECCENTRICITY":0.00030698,"INCLINATION":70.0018,"RA_OF_ASC_NODE":233.9123,"ARG_OF_PERICENTER":266.3856,"MEAN_ANOMALY":93.6952,"EPHEMERIS_TYPE":0,"CLASSIFICATION_TYPE":"U","NORAD_CAT_ID":63889,"ELEMENT_SET_NO":999,"REV_AT_EPOCH":4745,"BSTAR":0.000199935,"MEAN_MOTION_DOT":2.294e-5,"MEAN_MOTION_DDOT":0},{"OBJECT_NAME":"COSMOS 2251 DEB","OBJECT_ID":"1993-036BVX","EPOCH":"2026-03-07T01:08:49.279776","MEAN_MOTION":15.01172156,"ECCENTRICITY":0.00079061,"INCLINATION":73.9738,"RA_OF_ASC_NODE":312.9961,"ARG_OF_PERICENTER":93.9407,"MEAN_ANOMALY":333.6878,"EPHEMERIS_TYPE":0,"CLASSIFICATION_TYPE":"U","NORAD_CAT_ID":40794,"ELEMENT_SET_NO":999,"REV_AT_EPOCH":63186,"BSTAR":0.0025789321,"MEAN_MOTION_DOT":0.00033218,"MEAN_MOTION_DDOT":0}]
